{
  "type": "FeatureCollection",
  "features": [
    {
      "type": "Feature",
      "properties": {
        "norad_id": 30172,
        "name": "FENGYUN 1C DEB",
        "group": "fengyun-1c-debris",
        "lat": -3.2789715139016424,
        "lon": 140.33596881106243,
        "alt_km": 812.3983229089017,
        "timestamp": "2025-12-07T22:37:43.354222+00:00",
        "meta_object_name": "FENGYUN 1C DEB",
        "meta_object_id": "1999-025UD",
        "meta_epoch": "2025-12-06T22:13:21.678240",
        "meta_mean_motion": 14.12420233,
        "meta_eccentricity": 0.0068806,
        "meta_inclination": 99.2338,
        "meta_ra_of_asc_node": 319.8226,
        "meta_arg_of_pericenter": 218.709,
        "meta_mean_anomaly": 197.0178,
        "meta_ephemeris_type": 0,
        "meta_classification_type": "U",
        "meta_norad_cat_id": 30172,
        "meta_element_set_no": 999,
        "meta_rev_at_epoch": 96435,
        "meta_bstar": 0.0020642683,
        "meta_mean_motion_dot": 3.849e-05,
        "meta_mean_motion_ddot": 0,
        "tle_line1": "1 30172U 99025UD  25340.92594535  .00003849  00000+0  20643-2 0  9994",
        "tle_line2": "2 30172  99.2338 319.8226 0068806 218.7090 197.0178 14.12420233964357"
      },
      "geometry": {
        "type": "Point",
        "coordinates": [
          140.33596881106243,
          -3.2789715139016424
        ]
      }
    },
    {
      "type": "Feature",
      "properties": {
        "norad_id": 30173,
        "name": "FENGYUN 1C DEB",
        "group": "fengyun-1c-debris",
        "lat": 12.937366541986945,
        "lon": -125.21601610179643,
        "alt_km": 896.9507053789685,
        "timestamp": "2025-12-07T22:37:43.354233+00:00",
        "meta_object_name": "FENGYUN 1C DEB",
        "meta_object_id": "1999-025UE",
        "meta_epoch": "2025-12-07T03:15:25.678368",
        "meta_mean_motion": 14.11339361,
        "meta_eccentricity": 0.0080072,
        "meta_inclination": 98.9765,
        "meta_ra_of_asc_node": 51.8962,
        "meta_arg_of_pericenter": 304.6065,
        "meta_mean_anomaly": 84.1099,
        "meta_ephemeris_type": 0,
        "meta_classification_type": "U",
        "meta_norad_cat_id": 30173,
        "meta_element_set_no": 999,
        "meta_rev_at_epoch": 96470,
        "meta_bstar": 0.0024746966,
        "meta_mean_motion_dot": 4.568e-05,
        "meta_mean_motion_ddot": 0,
        "tle_line1": "1 30173U 99025UE  25341.13571387  .00004568  00000+0  24747-2 0  9997",
        "tle_line2": "2 30173  98.9765  51.8962 0080072 304.6065  84.1099 14.11339361964701"
      },
      "geometry": {
        "type": "Point",
        "coordinates": [
          -125.21601610179643,
          12.937366541986945
        ]
      }
    },
    {
      "type": "Feature",
      "properties": {
        "norad_id": 30174,
        "name": "FENGYUN 1C DEB",
        "group": "fengyun-1c-debris",
        "lat": 59.63732983112861,
        "lon": 115.03408861927194,
        "alt_km": 609.2981986890891,
        "timestamp": "2025-12-07T22:37:43.354243+00:00",
        "meta_object_name": "FENGYUN 1C DEB",
        "meta_object_id": "1999-025UF",
        "meta_epoch": "2025-12-07T00:11:17.448576",
        "meta_mean_motion": 14.8046061,
        "meta_eccentricity": 0.00178195,
        "meta_inclination": 98.7769,
        "meta_ra_of_asc_node": 129.3038,
        "meta_arg_of_pericenter": 66.4138,
        "meta_mean_anomaly": 53.9203,
        "meta_ephemeris_type": 0,
        "meta_classification_type": "U",
        "meta_norad_cat_id": 30174,
        "meta_element_set_no": 999,
        "meta_rev_at_epoch": 98283,
        "meta_bstar": 0.0067084059,
        "meta_mean_motion_dot": 0.00051758,
        "meta_mean_motion_ddot": 0,
        "tle_line1": "1 30174U 99025UF  25341.00784084  .00051758  00000+0  67084-2 0  9998",
        "tle_line2": "2 30174  98.7769 129.3038 0017819  66.4138  53.9203 14.80460610982835"
      },
      "geometry": {
        "type": "Point",
        "coordinates": [
          115.03408861927194,
          59.63732983112861
        ]
      }
    },
    {
      "type": "Feature",
      "properties": {
        "norad_id": 30175,
        "name": "FENGYUN 1C DEB",
        "group": "fengyun-1c-debris",
        "lat": 8.297692413783754,
        "lon": 36.64049426603676,
        "alt_km": 1036.9776917489053,
        "timestamp": "2025-12-07T22:37:43.354254+00:00",
        "meta_object_name": "FENGYUN 1C DEB",
        "meta_object_id": "1999-025UG",
        "meta_epoch": "2025-12-06T17:40:50.162880",
        "meta_mean_motion": 13.83858156,
        "meta_eccentricity": 0.01460952,
        "meta_inclination": 99.3819,
        "meta_ra_of_asc_node": 36.8184,
        "meta_arg_of_pericenter": 228.6368,
        "meta_mean_anomaly": 253.0618,
        "meta_ephemeris_type": 0,
        "meta_classification_type": "U",
        "meta_norad_cat_id": 30175,
        "meta_element_set_no": 999,
        "meta_rev_at_epoch": 95257,
        "meta_bstar": 0.00068792819,
        "meta_mean_motion_dot": 7.83e-06,
        "meta_mean_motion_ddot": 0,
        "tle_line1": "1 30175U 99025UG  25340.73669170  .00000783  00000+0  68793-3 0  9997",
        "tle_line2": "2 30175  99.3819  36.8184 0146095 228.6368 253.0618 13.83858156952578"
      },
      "geometry": {
        "type": "Point",
        "coordinates": [
          36.64049426603676,
          8.297692413783754
        ]
      }
    },
    {
      "type": "Feature",
      "properties": {
        "norad_id": 30177,
        "name": "FENGYUN 1C DEB",
        "group": "fengyun-1c-debris",
        "lat": 4.7020684586507135,
        "lon": 106.83649948672604,
        "alt_km": 720.2560150273484,
        "timestamp": "2025-12-07T22:37:43.354264+00:00",
        "meta_object_name": "FENGYUN 1C DEB",
        "meta_object_id": "1999-025UJ",
        "meta_epoch": "2025-12-06T19:39:04.307904",
        "meta_mean_motion": 13.62794435,
        "meta_eccentricity": 0.04513382,
        "meta_inclination": 98.6258,
        "meta_ra_of_asc_node": 285.1217,
        "meta_arg_of_pericenter": 153.9854,
        "meta_mean_anomaly": 267.327,
        "meta_ephemeris_type": 0,
        "meta_classification_type": "U",
        "meta_norad_cat_id": 30177,
        "meta_element_set_no": 999,
        "meta_rev_at_epoch": 93382,
        "meta_bstar": 0.001025662,
        "meta_mean_motion_dot": 1.559e-05,
        "meta_mean_motion_ddot": 0,
        "tle_line1": "1 30177U 99025UJ  25340.81879986  .00001559  00000+0  10257-2 0  9999",
        "tle_line2": "2 30177  98.6258 285.1217 0451338 153.9854 267.3270 13.62794435933829"
      },
      "geometry": {
        "type": "Point",
        "coordinates": [
          106.83649948672604,
          4.7020684586507135
        ]
      }
    },
    {
      "type": "Feature",
      "properties": {
        "norad_id": 30178,
        "name": "FENGYUN 1C DEB",
        "group": "fengyun-1c-debris",
        "lat": 47.2853853986397,
        "lon": 47.80396574718556,
        "alt_km": 829.5509923965565,
        "timestamp": "2025-12-07T22:37:43.354275+00:00",
        "meta_object_name": "FENGYUN 1C DEB",
        "meta_object_id": "1999-025UK",
        "meta_epoch": "2025-12-07T03:17:04.146720",
        "meta_mean_motion": 13.58663224,
        "meta_eccentricity": 0.02804164,
        "meta_inclination": 102.2596,
        "meta_ra_of_asc_node": 213.1776,
        "meta_arg_of_pericenter": 140.0226,
        "meta_mean_anomaly": 11.0234,
        "meta_ephemeris_type": 0,
        "meta_classification_type": "U",
        "meta_norad_cat_id": 30178,
        "meta_element_set_no": 999,
        "meta_rev_at_epoch": 93095,
        "meta_bstar": 0.0022488795,
        "meta_mean_motion_dot": 2.063e-05,
        "meta_mean_motion_ddot": 0,
        "tle_line1": "1 30178U 99025UK  25341.13685355  .00002063  00000+0  22489-2 0  9992",
        "tle_line2": "2 30178 102.2596 213.1776 0280416 140.0226  11.0234 13.58663224930956"
      },
      "geometry": {
        "type": "Point",
        "coordinates": [
          47.80396574718556,
          47.2853853986397
        ]
      }
    },
    {
      "type": "Feature",
      "properties": {
        "norad_id": 30181,
        "name": "FENGYUN 1C DEB",
        "group": "fengyun-1c-debris",
        "lat": -32.59013489791469,
        "lon": 70.7920777746497,
        "alt_km": 780.8756324050592,
        "timestamp": "2025-12-07T22:37:43.354287+00:00",
        "meta_object_name": "FENGYUN 1C DEB",
        "meta_object_id": "1999-025UN",
        "meta_epoch": "2025-12-06T18:47:35.423232",
        "meta_mean_motion": 14.29178221,
        "meta_eccentricity": 0.00402355,
        "meta_inclination": 98.8433,
        "meta_ra_of_asc_node": 63.904,
        "meta_arg_of_pericenter": 17.8081,
        "meta_mean_anomaly": 105.6559,
        "meta_ephemeris_type": 0,
        "meta_classification_type": "U",
        "meta_norad_cat_id": 30181,
        "meta_element_set_no": 999,
        "meta_rev_at_epoch": 97426,
        "meta_bstar": 0.002695096,
        "meta_mean_motion_dot": 6.862e-05,
        "meta_mean_motion_ddot": 0,
        "tle_line1": "1 30181U 99025UN  25340.78304888  .00006862  00000+0  26951-2 0  9994",
        "tle_line2": "2 30181  98.8433  63.9040 0040235  17.8081 105.6559 14.29178221974267"
      },
      "geometry": {
        "type": "Point",
        "coordinates": [
          70.7920777746497,
          -32.59013489791469
        ]
      }
    }
  ]
}